NORAD_CAT_ID,OBJECT_NAME,OBJECT_TYPE,EPOCH,MEAN_MOTION,ECCENTRICITY,INCLINATION,RA_OF_ASC_NODE,ARG_OF_PERICENTER,MEAN_ANOMALY,BSTAR,MEAN_MOTION_DOT,MEAN_MOTION_DDOT,TLE_LINE0,TLE_LINE1,TLE_LINE2,SEMIMAJOR_AXIS,PERIOD,APOGEE,PERIGEE,DECAYED
53249.0,STARLINK-4128,PAYLOAD,2023-11-04 08:36:52,15.08837554,0.0001531,53.2191,78.3493,88.2869,271.8299,6.4143e-05,7.33e-06,0.0,0 STARLINK-4128,1 53249U 22086H   23308.35894193  .00000733  00000-0  64143-4 0  9994,2 53249  53.2191  78.3493 0001531  88.2869 271.8299 15.08837554 71609,6917.888,95.438,540.812,538.694,0.0
53249.0,STARLINK-4128,PAYLOAD,2023-11-04 14:58:24,15.08839265,0.0001368,53.2176,77.1591,90.0268,270.0881,7.6084e-05,9.23e-06,0.0,0 STARLINK-4128,1 53249U 22086H   23308.62389942  .00000923  00000-0  76084-4 0  9993,2 53249  53.2176  77.1591 0001368  90.0268 270.0881 15.08839265 71845,6917.883,95.438,540.694,538.801,0.0
53249.0,STARLINK-4128,PAYLOAD,2023-11-05 14:49:11,15.08843473,0.0001397,53.2165,72.6999,75.0715,285.0432,3.0943e-05,2.05e-06,0.0,0 STARLINK-4128,1 53249U 22086H   23309.61749964  .00000205  00000-0  30943-4 0  9994,2 53249  53.2165  72.6999 0001397  75.0715 285.0432 15.08843473 71997,6917.87,95.437,540.701,538.768,0.0
53249.0,STARLINK-4128,PAYLOAD,2023-11-06 01:56:52,15.08862544,0.0001453,53.2173,70.6148,82.659,277.4567,0.00036195,5.481e-05,0.0,0 STARLINK-4128,1 53249U 22086H   23310.08116746  .00005481  00000-0  36195-3 0  9998,2 53249  53.2173  70.6148 0001453  82.6590 277.4567 15.08862544 71868,6917.811,95.436,540.682,538.671,0.0
53249.0,STARLINK-4128,PAYLOAD,2023-11-06 11:29:14,15.08806427,0.0001503,53.2168,68.8333,22.8182,337.2876,-0.00040458,-6.715e-05,0.0,0 STARLINK-4128,1 53249U 22086H   23310.47863570 -.00006715  00000-0 -40458-3 0  9995,2 53249  53.2168  68.8333 0001503  22.8182 337.2876 15.08806427 71929,6917.983,95.44,540.888,538.808,0.0
53249.0,STARLINK-4128,PAYLOAD,2023-11-06 14:40:00,15.08804953,0.0001286,53.2166,68.236,97.2185,262.8953,-0.00047712,-7.866e-05,0.0,0 STARLINK-4128,1 53249U 22086H   23310.61111738 -.00007866  00000-0 -47712-3 0  9991,2 53249  53.2166  68.2360 0001286  97.2185 262.8953 15.08804953 72144,6917.988,95.44,540.742,538.963,0.0
53249.0,STARLINK-4128,PAYLOAD,2023-11-07 11:20:01,15.08818033,0.0001569,53.2169,64.3706,86.5198,273.5974,-0.00014558,-2.603e-05,0.0,0 STARLINK-4128,1 53249U 22086H   23311.47224305 -.00002603  00000-0 -14558-3 0  9997,2 53249  53.2169  64.3706 0001569  86.5198 273.5974 15.08818033 72075,6917.948,95.439,540.898,538.727,0.0
53249.0,STARLINK-4128,PAYLOAD,2023-11-07 14:30:47,15.08838885,0.0001298,53.2174,63.7753,87.3844,272.7296,6.097e-05,6.83e-06,0.0,0 STARLINK-4128,1 53249U 22086H   23311.60471451  .00000683  00000-0  60970-4 0  9992,2 53249  53.2174  63.7753 0001298  87.3844 272.7296 15.08838885 72291,6917.884,95.438,540.647,538.851,0.0
53249.0,STARLINK-4128,PAYLOAD,2023-11-08 11:10:47,15.08852332,0.0001723,53.2177,59.9096,116.1998,243.9171,0.00024433,3.604e-05,0.0,0 STARLINK-4128,1 53249U 22086H   23312.46582945  .00003604  00000-0  24433-3 0  9997,2 53249  53.2177  59.9096 0001723 116.1998 243.9171 15.08852332 72223,6917.843,95.437,540.9,538.516,0.0
53249.0,STARLINK-4128,PAYLOAD,2023-11-08 12:46:10,15.08849735,0.0001379,53.2181,59.613,92.0074,268.1076,0.00023164,3.401e-05,0.0,0 STARLINK-4128,1 53249U 22086H   23312.53207110  .00003401  00000-0  23164-3 0  9998,2 53249  53.2181  59.6130 0001379  92.0074 268.1076 15.08849735 72437,6917.851,95.437,540.67,538.762,0.0
53249.0,STARLINK-4128,PAYLOAD,2023-11-08 23:53:53,15.08845744,0.0001248,53.2174,57.5336,87.6531,272.4604,0.00062052,9.603e-05,0.0,0 STARLINK-4128,1 53249U 22086H   23312.99575626  .00009603  00000-0  62052-3 0  9997,2 53249  53.2174  57.5336 0001248  87.6531 272.4604 15.08845744 72304,6917.863,95.437,540.591,538.864,0.0
53249.0,STARLINK-4128,PAYLOAD,2023-11-09 12:36:58,15.08848488,0.0001303,53.2183,55.1568,90.0,270.1142,0.00013002,1.782e-05,0.0,0 STARLINK-4128,1 53249U 22086H   23313.52567149  .00001782  00000-0  13002-3 0  9999,2 53249  53.2183  55.1568 0001303  90.0000 270.1142 15.08848488 72586,6917.854,95.437,540.621,538.818,0.0
53249.0,STARLINK-4128,PAYLOAD,2023-11-09 23:44:39,15.08845308,0.0001243,53.2172,53.0746,89.1689,270.9445,4.3161e-05,3.99e-06,0.0,0 STARLINK-4128,1 53249U 22086H   23313.98935063  .00000399  00000-0  43161-4 0  9996,2 53249  53.2172  53.0746 0001243  89.1689 270.9445 15.08845308 72452,6917.864,95.437,540.589,538.869,0.0
53249.0,STARLINK-4128,PAYLOAD,2023-11-10 12:27:45,15.08839278,0.0001482,53.2174,50.6922,90.7966,269.3196,-0.00014594,-2.61e-05,0.0,0 STARLINK-4128,1 53249U 22086H   23314.51927431 -.00002610  00000-0 -14594-3 0  9993,2 53249  53.2174  50.6922 0001482  90.7966 269.3196 15.08839278 72537,6917.883,95.438,540.773,538.722,0.0
53249.0,STARLINK-4128,PAYLOAD,2023-11-10 14:03:08,15.08843707,0.0001381,53.2172,50.3976,84.8352,275.2798,-6.5285e-05,-1.327e-05,0.0,0 STARLINK-4128,1 53249U 22086H   23314.58551211 -.00001327  00000-0 -65285-4 0  9997,2 53249  53.2172  50.3976 0001381  84.8352 275.2798 15.08843707 72741,6917.869,95.437,540.689,538.779,0.0
53249.0,STARLINK-4128,PAYLOAD,2023-11-10 23:35:26,15.08846798,0.0001381,53.217,48.6143,87.2824,272.8326,1.5887e-05,-3.5e-07,0.0,0 STARLINK-4128,1 53249U 22086H   23314.98294961 -.00000035  00000-0  15887-4 0  9994,2 53249  53.2170  48.6143 0001381  87.2824 272.8326 15.08846798 72604,6917.86,95.437,540.68,538.769,0.0
53249.0,STARLINK-4128,PAYLOAD,2023-11-11 12:18:31,15.08863846,0.0001421,53.2165,46.2357,96.0801,264.0353,0.00064817,0.00010049,0.0,0 STARLINK-4128,1 53249U 22086H   23315.51286408  .00010049  00000-0  64817-3 0  9992,2 53249  53.2165  46.2357 0001421  96.0801 264.0353 15.08863846 72681,6917.808,95.436,540.656,538.689,0.0
53249.0,STARLINK-4128,PAYLOAD,2023-11-11 13:53:54,15.08870461,0.0001455,53.2167,45.9375,90.2955,269.8204,0.0010955,0.00017204,0.0,0 STARLINK-4128,1 53249U 22086H   23315.57910403  .00017204  00000-0  10955-2 0  9990,2 53249  53.2167  45.9375 0001455  90.2955 269.8204 15.08870461 72894,6917.787,95.436,540.659,538.646,0.0
53249.0,STARLINK-4128,PAYLOAD,2023-11-11 18:40:03,15.08883735,0.0001559,53.2171,45.045,92.9343,267.1828,0.001273,0.00020054,0.0,0 STARLINK-4128,1 53249U 22086H   23315.77781836  .00020054  00000-0  12730-2 0  9998,2 53249  53.2171  45.0450 0001559  92.9343 267.1828 15.08883735 72924,6917.747,95.435,540.69,538.533,0.0
53249.0,STARLINK-4128,PAYLOAD,2023-11-11 23:26:12,15.08849078,3.23e-05,53.2169,44.1526,96.5222,263.5807,-0.00031803,-5.346e-05,0.0,0 STARLINK-4128,1 53249U 22086H   23315.97653873 -.00005346  00000-0 -31803-3 0  9991,2 53249  53.2169  44.1526 0000323  96.5222 263.5807 15.08849078 72759,6917.853,95.437,539.941,539.494,0.0
53249.0,STARLINK-4128,PAYLOAD,2023-11-12 12:09:18,15.08839388,0.000161,53.2167,41.775,77.0128,283.1044,0.00090336,0.00014118,0.0,0 STARLINK-4128,1 53249U 22086H   23316.50646683  .00014118  00000-0  90336-3 0  9993,2 53249  53.2167  41.7750 0001610  77.0128 283.1044 15.08839388 73034,6917.882,95.438,540.861,538.633,0.0
53249.0,STARLINK-4128,PAYLOAD,2023-11-13 12:00:05,15.08855367,0.0001679,53.2172,37.3132,81.7594,278.3589,0.00080041,0.00012479,0.0,0 STARLINK-4128,1 53249U 22086H   23317.50006410  .00012479  00000-0  80041-3 0  9992,2 53249  53.2172  37.3132 0001679  81.7594 278.3589 15.08855367 72987,6917.833,95.437,540.86,538.537,0.0
53249.0,STARLINK-4128,PAYLOAD,2023-11-14 11:50:53,15.08835394,0.0001621,53.2176,32.8521,87.437,272.6808,3.9185e-05,3.36e-06,0.0,0 STARLINK-4128,1 53249U 22086H   23318.49367100  .00000336  00000-0  39185-4 0  9990,2 53249  53.2176  32.8521 0001621  87.4370 272.6808 15.08835394 73132,6917.894,95.438,540.881,538.638,0.0
53249.0,STARLINK-4128,PAYLOAD,2023-11-15 11:41:40,15.08846017,0.0001667,53.2181,28.39,90.3831,269.7353,0.00024068,3.545e-05,0.0,0 STARLINK-4128,1 53249U 22086H   23319.48726954  .00003545  00000-0  24068-3 0  9994,2 53249  53.2181  28.3900 0001667  90.3831 269.7353 15.08846017 73488,6917.862,95.437,540.88,538.574,0.0
53249.0,STARLINK-4128,PAYLOAD,2023-11-15 21:13:59,15.08838229,0.0001689,53.2181,26.6093,87.8342,272.2844,0.00012772,1.745e-05,0.0,0 STARLINK-4128,1 53249U 22086H   23319.88471326  .00001745  00000-0  12772-3 0  9997,2 53249  53.2181  26.6093 0001689  87.8342 272.2844 15.08838229 73541,6917.886,95.438,540.919,538.582,0.0
53249.0,STARLINK-4128,PAYLOAD,2023-11-16 08:21:41,15.08831471,0.0001694,53.2179,24.5279,99.3725,260.7459,1.9502e-05,2.2e-07,0.0,0 STARLINK-4128,1 53249U 22086H   23320.34839796  .00000022  00000-0  19502-4 0  9995,2 53249  53.2179  24.5279 0001694  99.3725 260.7459 15.08831471 73412,6917.906,95.438,540.943,538.6,0.0
53249.0,STARLINK-4128,PAYLOAD,2023-11-16 21:04:46,15.08833582,0.0001696,53.2188,22.1525,99.2204,260.898,4.6729e-05,4.56e-06,0.0,0 STARLINK-4128,1 53249U 22086H   23320.87832043  .00000456  00000-0  46729-4 0  9993,2 53249  53.2188  22.1525 0001696  99.2204 260.8980 15.08833582 73698,6917.9,95.438,540.938,538.592,0.0
53249.0,STARLINK-4128,PAYLOAD,2023-11-17 11:23:14,15.08848941,0.0001771,53.2186,19.4757,99.9107,260.2085,9.087e-05,1.159e-05,0.0,0 STARLINK-4128,1 53249U 22086H   23321.47447267  .00001159  00000-0  90870-4 0  9997,2 53249  53.2186  19.4757 0001771  99.9107 260.2085 15.08848941 73588,6917.853,95.437,540.943,538.493,0.0
53249.0,STARLINK-4128,PAYLOAD,2023-11-18 11:14:01,15.08842269,0.0001345,53.218,15.013,91.143,268.9717,0.00016016,2.262e-05,0.0,0 STARLINK-4128,1 53249U 22086H   23322.46807676  .00002262  00000-0  16016-3 0  9996,2 53249  53.2180  15.0130 0001345  91.1430 268.9717 15.08842269 73730,6917.873,95.437,540.669,538.808,0.0
53249.0,STARLINK-4128,PAYLOAD,2023-11-18 20:46:20,15.08841588,0.0001463,53.2185,13.228,83.6466,276.4693,4.9964e-05,5.07e-06,0.0,0 STARLINK-4128,1 53249U 22086H   23322.86551697  .00000507  00000-0  49964-4 0  9998,2 53249  53.2185  13.2280 0001463  83.6466 276.4693 15.08841588 73995,6917.876,95.437,540.753,538.728,0.0
